IRIDIUM 33              
1 24946U 97051C   26073.60667895  .00000352  00000+0  11659-3 0  9996
2 24946  86.3890  29.6347 0005735 278.2398  81.8148 14.35104990491528
IRIDIUM 33 DEB          
1 33773U 97051L   26073.57244123  .00001338  00000+0  38979-3 0  9994
2 33773  86.4044  21.6541 0009872 199.4523 160.6302 14.43493653896721
IRIDIUM 33 DEB          
1 33775U 97051N   26073.56297803  .00001760  00000+0  53290-3 0  9990
2 33775  86.3680  10.3406 0011194 213.3415 320.1291 14.41776320894630
IRIDIUM 33 DEB          
1 33776U 97051P   26073.44023193  .00000976  00000+0  31366-3 0  9995
2 33776  86.4033  42.2305 0012200 255.7655 227.3900 14.38415657894006
IRIDIUM 33 DEB          
1 33777U 97051Q   26073.30722604  .00002914  00000+0  65275-3 0  9994
2 33777  86.3832 355.3534 0005562 329.3272  30.7610 14.56358494898666
IRIDIUM 33 DEB          
1 33850U 97051T   26073.23425642  .00001062  00000+0  31465-3 0  9997
2 33850  86.3468 350.8418 0009312 223.1532 259.3787 14.42492378894712
IRIDIUM 33 DEB          
1 33853U 97051W   26073.40355481  .00001850  00000+0  10412-2 0  9995
2 33853  85.9996 309.6177 0208864 315.9206 223.6341 13.99606613866271
IRIDIUM 33 DEB          
1 33860U 97051AD  26073.27011817  .00009007  00000+0  15261-2 0  9999
2 33860  86.3868 346.6792 0010993  35.8327  85.6555 14.69148610900652
IRIDIUM 33 DEB          
1 33862U 97051AF  26073.24784964  .00013985  00000+0  21782-2 0  9993
2 33862  86.4129 357.1070 0051663 108.1149  19.9622 14.71962951901680
IRIDIUM 33 DEB          
1 33866U 97051AK  26072.41954034  .00002899  00000+0  11385-2 0  9992
2 33866  86.2996  54.6369 0110341 230.2516 293.1943 14.25766683881028
IRIDIUM 33 DEB          
1 33870U 97051AP  26073.60097417  .00003293  00000+0  90930-3 0  9995
2 33870  86.3781  18.8577 0018343 235.2070 301.7893 14.46435195894644
IRIDIUM 33 DEB          
1 33881U 97051BA  26073.43977554  .00018134  00000+0  37634-2 0  9998
2 33881  86.3829  66.7879 0051892 224.2687 297.7831 14.59214966888367
IRIDIUM 33 DEB          
1 33884U 97051BD  26073.22054782  .00017632  00000+0  22965-2 0  9990
2 33884  86.3713 328.4496 0012488   4.7230 122.4242 14.80462558901999
IRIDIUM 33 DEB          
1 33886U 97051BF  26073.37390694  .00000698  00000+0  23274-3 0  9992
2 33886  86.3853  28.6344 0012473 313.9273 162.2804 14.36175782893675
IRIDIUM 33 DEB          
1 33887U 97051BG  26073.46383032  .00000431  00000+0  13807-3 0  9997
2 33887  86.3069 323.8911 0004595 316.4161 224.5119 14.37328633894820
IRIDIUM 33 DEB          
1 33953U 97051BN  26071.81117370  .00005735  00000+0  12845-2 0  9990
2 33953  86.3886  14.6487 0016731 146.2586 243.5296 14.56436154896142
