[{"OBJECT_NAME":"IRIDIUM 33","OBJECT_ID":"1997-051C","EPOCH":"2026-03-14T14:33:37.061280","MEAN_MOTION":14.3510499,"ECCENTRICITY":0.00057359,"INCLINATION":86.389,"RA_OF_ASC_NODE":29.6347,"ARG_OF_PERICENTER":278.2398,"MEAN_ANOMALY":81.8148,"EPHEMERIS_TYPE":0,"CLASSIFICATION_TYPE":"U","NORAD_CAT_ID":24946,"ELEMENT_SET_NO":999,"REV_AT_EPOCH":49152,"BSTAR":0.00011659316,"MEAN_MOTION_DOT":3.52e-6,"MEAN_MOTION_DDOT":0},{"OBJECT_NAME":"IRIDIUM 33 DEB","OBJECT_ID":"1997-051L","EPOCH":"2026-03-14T13:44:18.922272","MEAN_MOTION":14.43493653,"ECCENTRICITY":0.00098724,"INCLINATION":86.4044,"RA_OF_ASC_NODE":21.6541,"ARG_OF_PERICENTER":199.4523,"MEAN_ANOMALY":160.6302,"EPHEMERIS_TYPE":0,"CLASSIFICATION_TYPE":"U","NORAD_CAT_ID":33773,"ELEMENT_SET_NO":999,"REV_AT_EPOCH":89672,"BSTAR":0.0003897897,"MEAN_MOTION_DOT":1.338e-5,"MEAN_MOTION_DDOT":0},{"OBJECT_NAME":"IRIDIUM 33 DEB","OBJECT_ID":"1997-051N","EPOCH":"2026-03-14T13:30:41.301792","MEAN_MOTION":14.4177632,"ECCENTRICITY":0.00111949,"INCLINATION":86.368,"RA_OF_ASC_NODE":10.3406,"ARG_OF_PERICENTER":213.3415,"MEAN_ANOMALY":320.1291,"EPHEMERIS_TYPE":0,"CLASSIFICATION_TYPE":"U","NORAD_CAT_ID":33775,"ELEMENT_SET_NO":999,"REV_AT_EPOCH":89463,"BSTAR":0.00053289652,"MEAN_MOTION_DOT":1.76e-5,"MEAN_MOTION_DDOT":0},{"OBJECT_NAME":"IRIDIUM 33 DEB","OBJECT_ID":"1997-051P","EPOCH":"2026-03-14T10:33:56.038752","MEAN_MOTION":14.38415657,"ECCENTRICITY":0.00122,"INCLINATION":86.4033,"RA_OF_ASC_NODE":42.2305,"ARG_OF_PERICENTER":255.7655,"MEAN_ANOMALY":227.39,"EPHEMERIS_TYPE":0,"CLASSIFICATION_TYPE":"U","NORAD_CAT_ID":33776,"ELEMENT_SET_NO":999,"REV_AT_EPOCH":89400,"BSTAR":0.00031366458,"MEAN_MOTION_DOT":9.76e-6,"MEAN_MOTION_DDOT":0},{"OBJECT_NAME":"IRIDIUM 33 DEB","OBJECT_ID":"1997-051Q","EPOCH":"2026-03-14T07:22:24.329856","MEAN_MOTION":14.56358494,"ECCENTRICITY":0.00055624,"INCLINATION":86.3832,"RA_OF_ASC_NODE":355.3534,"ARG_OF_PERICENTER":329.3272,"MEAN_ANOMALY":30.761,"EPHEMERIS_TYPE":0,"CLASSIFICATION_TYPE":"U","NORAD_CAT_ID":33777,"ELEMENT_SET_NO":999,"REV_AT_EPOCH":89866,"BSTAR":0.00065274921,"MEAN_MOTION_DOT":2.914e-5,"MEAN_MOTION_DDOT":0},{"OBJECT_NAME":"IRIDIUM 33 DEB","OBJECT_ID":"1997-051T","EPOCH":"2026-03-14T05:37:19.754688","MEAN_MOTION":14.42492378,"ECCENTRICITY":0.00093125,"INCLINATION":86.3468,"RA_OF_ASC_NODE":350.8418,"ARG_OF_PERICENTER":223.1532,"MEAN_ANOMALY":259.3787,"EPHEMERIS_TYPE":0,"CLASSIFICATION_TYPE":"U","NORAD_CAT_ID":33850,"ELEMENT_SET_NO":999,"REV_AT_EPOCH":89471,"BSTAR":0.00031464504,"MEAN_MOTION_DOT":1.062e-5,"MEAN_MOTION_DDOT":0},{"OBJECT_NAME":"IRIDIUM 33 DEB","OBJECT_ID":"1997-051W","EPOCH":"2026-03-14T09:41:07.135584","MEAN_MOTION":13.99606613,"ECCENTRICITY":0.02088648,"INCLINATION":85.9996,"RA_OF_ASC_NODE":309.6177,"ARG_OF_PERICENTER":315.9206,"MEAN_ANOMALY":223.6341,"EPHEMERIS_TYPE":0,"CLASSIFICATION_TYPE":"U","NORAD_CAT_ID":33853,"ELEMENT_SET_NO":999,"REV_AT_EPOCH":86627,"BSTAR":0.0010412028,"MEAN_MOTION_DOT":1.85e-5,"MEAN_MOTION_DDOT":0},{"OBJECT_NAME":"IRIDIUM 33 DEB","OBJECT_ID":"1997-051AD","EPOCH":"2026-03-14T06:28:58.209888","MEAN_MOTION":14.6914861,"ECCENTRICITY":0.00109939,"INCLINATION":86.3868,"RA_OF_ASC_NODE":346.6792,"ARG_OF_PERICENTER":35.8327,"MEAN_ANOMALY":85.6555,"EPHEMERIS_TYPE":0,"CLASSIFICATION_TYPE":"U","NORAD_CAT_ID":33860,"ELEMENT_SET_NO":999,"REV_AT_EPOCH":90065,"BSTAR":0.0015260711,"MEAN_MOTION_DOT":9.007e-5,"MEAN_MOTION_DDOT":0},{"OBJECT_NAME":"IRIDIUM 33 DEB","OBJECT_ID":"1997-051AF","EPOCH":"2026-03-14T05:56:54.208896","MEAN_MOTION":14.71962951,"ECCENTRICITY":0.00516639,"INCLINATION":86.4129,"RA_OF_ASC_NODE":357.107,"ARG_OF_PERICENTER":108.1149,"MEAN_ANOMALY":19.9622,"EPHEMERIS_TYPE":0,"CLASSIFICATION_TYPE":"U","NORAD_CAT_ID":33862,"ELEMENT_SET_NO":999,"REV_AT_EPOCH":90168,"BSTAR":0.0021782357,"MEAN_MOTION_DOT":0.00013985,"MEAN_MOTION_DDOT":0},{"OBJECT_NAME":"IRIDIUM 33 DEB","OBJECT_ID":"1997-051AK","EPOCH":"2026-03-13T10:04:08.285376","MEAN_MOTION":14.25766683,"ECCENTRICITY":0.01103414,"INCLINATION":86.2996,"RA_OF_ASC_NODE":54.6369,"ARG_OF_PERICENTER":230.2516,"MEAN_ANOMALY":293.1943,"EPHEMERIS_TYPE":0,"CLASSIFICATION_TYPE":"U","NORAD_CAT_ID":33866,"ELEMENT_SET_NO":999,"REV_AT_EPOCH":88102,"BSTAR":0.0011384877,"MEAN_MOTION_DOT":2.899e-5,"MEAN_MOTION_DDOT":0},{"OBJECT_NAME":"IRIDIUM 33 DEB","OBJECT_ID":"1997-051AP","EPOCH":"2026-03-14T14:25:24.168288","MEAN_MOTION":14.46435195,"ECCENTRICITY":0.00183436,"INCLINATION":86.3781,"RA_OF_ASC_NODE":18.8577,"ARG_OF_PERICENTER":235.207,"MEAN_ANOMALY":301.7893,"EPHEMERIS_TYPE":0,"CLASSIFICATION_TYPE":"U","NORAD_CAT_ID":33870,"ELEMENT_SET_NO":999,"REV_AT_EPOCH":89464,"BSTAR":0.00090930008,"MEAN_MOTION_DOT":3.293e-5,"MEAN_MOTION_DDOT":0},{"OBJECT_NAME":"IRIDIUM 33 DEB","OBJECT_ID":"1997-051BA","EPOCH":"2026-03-14T10:33:16.606656","MEAN_MOTION":14.59214966,"ECCENTRICITY":0.00518923,"INCLINATION":86.3829,"RA_OF_ASC_NODE":66.7879,"ARG_OF_PERICENTER":224.2687,"MEAN_ANOMALY":297.7831,"EPHEMERIS_TYPE":0,"CLASSIFICATION_TYPE":"U","NORAD_CAT_ID":33881,"ELEMENT_SET_NO":999,"REV_AT_EPOCH":88836,"BSTAR":0.003763419,"MEAN_MOTION_DOT":0.00018134,"MEAN_MOTION_DDOT":0},{"OBJECT_NAME":"IRIDIUM 33 DEB","OBJECT_ID":"1997-051BD","EPOCH":"2026-03-14T05:17:35.331648","MEAN_MOTION":14.80462558,"ECCENTRICITY":0.00124883,"INCLINATION":86.3713,"RA_OF_ASC_NODE":328.4496,"ARG_OF_PERICENTER":4.723,"MEAN_ANOMALY":122.4242,"EPHEMERIS_TYPE":0,"CLASSIFICATION_TYPE":"U","NORAD_CAT_ID":33884,"ELEMENT_SET_NO":999,"REV_AT_EPOCH":90199,"BSTAR":0.002296459,"MEAN_MOTION_DOT":0.00017632,"MEAN_MOTION_DDOT":0},{"OBJECT_NAME":"IRIDIUM 33 DEB","OBJECT_ID":"1997-051BF","EPOCH":"2026-03-14T08:58:25.559616","MEAN_MOTION":14.36175782,"ECCENTRICITY":0.00124731,"INCLINATION":86.3853,"RA_OF_ASC_NODE":28.6344,"ARG_OF_PERICENTER":313.9273,"MEAN_ANOMALY":162.2804,"EPHEMERIS_TYPE":0,"CLASSIFICATION_TYPE":"U","NORAD_CAT_ID":33886,"ELEMENT_SET_NO":999,"REV_AT_EPOCH":89367,"BSTAR":0.00023274064,"MEAN_MOTION_DOT":6.98e-6,"MEAN_MOTION_DDOT":0},{"OBJECT_NAME":"IRIDIUM 33 DEB","OBJECT_ID":"1997-051BG","EPOCH":"2026-03-14T11:07:54.939648","MEAN_MOTION":14.37328633,"ECCENTRICITY":0.00045959,"INCLINATION":86.3069,"RA_OF_ASC_NODE":323.8911,"ARG_OF_PERICENTER":316.4161,"MEAN_ANOMALY":224.5119,"EPHEMERIS_TYPE":0,"CLASSIFICATION_TYPE":"U","NORAD_CAT_ID":33887,"ELEMENT_SET_NO":999,"REV_AT_EPOCH":89482,"BSTAR":0.00013807459,"MEAN_MOTION_DOT":4.31e-6,"MEAN_MOTION_DDOT":0},{"OBJECT_NAME":"IRIDIUM 33 DEB","OBJECT_ID":"1997-051BN","EPOCH":"2026-03-12T19:28:05.407680","MEAN_MOTION":14.56436154,"ECCENTRICITY":0.00167318,"INCLINATION":86.3886,"RA_OF_ASC_NODE":14.6487,"ARG_OF_PERICENTER":146.2586,"MEAN_ANOMALY":243.5296,"EPHEMERIS_TYPE":0,"CLASSIFICATION_TYPE":"U","NORAD_CAT_ID":33953,"ELEMENT_SET_NO":999,"REV_AT_EPOCH":89614,"BSTAR":0.0012844754,"MEAN_MOTION_DOT":5.735e-5,"MEAN_MOTION_DDOT":0}]
